{
  "source": {
    "name": "Airframes Project",
    "url": "https://github.com/airframesio",
    "email": "kevin@airframes.io"
  },
  "attribution": {
    "name": "NOAA NWS Aviation Weather Center",
    "url": "https://www.aviationweather.gov/adds/dataserver_current/current/metars.cache.xml"
  },
  "resource_type": "metars",
  "count": 1,
  "metars": [
    {
      "raw_text": "KVKS 210655Z AUTO 00000KT 7SM CLR 22/22 A2998 RMK A01",
      "station_id": "KVKS",
      "observation_time": "2022-09-21T06:55:00Z",
      "latitude": "32.23",
      "longitude": "-90.93",
      "temp_c": "22.0",
      "dewpoint_c": "22.0",
      "wind_dir_degrees": "0",
      "wind_speed_kt": "0",
      "visibility_statute_mi": "7.0",
      "altim_in_hg": "29.97933",
      "quality_control_flags": {
        "auto": "TRUE",
        "auto_station": "TRUE"
      },
      "sky_condition": [
        {
          "sky_cover": "CLR"
        }
      ],
      "flight_category": "VFR",
      "metar_type": "METAR",
      "elevation_m": "31.0"
    }
  ]
}