{
  "source": {
    "name": "Airframes Project",
    "url": "https://github.com/airframesio",
    "email": "kevin@airframes.io"
  },
  "attribution": {
    "name": "NOAA NWS Aviation Weather Center",
    "url": "https://www.aviationweather.gov/adds/dataserver_current/current/metars.cache.xml"
  },
  "resource_type": "metars",
  "count": 1,
  "metars": [
    {
      "raw_text": "KVKS 141915Z AUTO 02006G12KT 10SM CLR 20/11 A3011 RMK A01",
      "station_id": "KVKS",
      "observation_time": "2022-04-14T19:15:00Z",
      "latitude": "32.23",
      "longitude": "-90.93",
      "temp_c": "20.0",
      "dewpoint_c": "11.0",
      "wind_dir_degrees": "20",
      "wind_speed_kt": "6",
      "wind_gust_kt": "12",
      "visibility_statute_mi": "10.0",
      "altim_in_hg": "30.109253",
      "quality_control_flags": {
        "auto": "TRUE",
        "auto_station": "TRUE"
      },
      "sky_condition": [
        {
          "sky_cover": "CLR"
        }
      ],
      "flight_category": "VFR",
      "metar_type": "SPECI",
      "elevation_m": "31.0"
    }
  ]
}